ONEWEB-0439             
1 51635U 22012P   26121.22245662  .00000202  00000+0  54244-3 0  9993
2 51635  87.8855  45.6144 0001961  79.6633 280.4715 13.10376583203175
ONEWEB-0442             
1 51636U 22012Q   26121.12419995  .00000058  00000+0  11742-3 0  9990
2 51636  87.9183  15.2307 0001728  99.7251 260.4076 13.17648437207477
ONEWEB-0443             
1 51637U 22012R   26121.14360558  .00000131  00000+0  30531-3 0  9992
2 51637  87.9178  15.2287 0002128  84.4593 275.6781 13.17648932207521
ONEWEB-0444             
1 51638U 22012S   26121.28885602 -.00000290  00000+0 -86619-3 0  9996
2 51638  87.8855  45.6000 0002013  81.0440 279.0915 13.10376458203190
ONEWEB-0445             
1 51639U 22012T   26121.23408299  .00000700  00000+0  19696-2 0  9999
2 51639  87.8862  45.5945 0001654  74.6530 285.4781 13.10376396203197
ONEWEB-0446             
1 51640U 22012U   26121.28718290 -.00000433  00000+0 -12777-2 0  9999
2 51640  87.8855  45.6165 0001715  77.3007 282.8312 13.10376071203183
ONEWEB-0448             
1 51641U 22012V   26121.29214991 -.00000160  00000+0 -49384-3 0  9992
2 51641  87.8854  45.6129 0001959  78.6668 281.4679 13.10374644203152
ONEWEB-0449             
1 51642U 22012W   26121.22079381  .00000165  00000+0  43625-3 0  9993
2 51642  87.8860  45.6108 0001955  91.7598 268.3753 13.10376124203153
ONEWEB-0451             
1 51643U 22012X   26121.12841783  .00000094  00000+0  20833-3 0  9993
2 51643  87.9191  15.1904 0001842  88.0997 272.0346 13.17650194207462
ONEWEB-0452             
1 51644U 22012Y   26121.12671720 -.00000082  00000+0 -24421-3 0  9992
2 51644  87.9180  15.2321 0002048  86.5433 273.5933 13.17648267207479
ONEWEB-0456             
1 51646U 22012AA  26121.23076321  .00000621  00000+0  17419-2 0  9997
2 51646  87.8867  45.5919 0002015  75.3495 284.7856 13.10375096203192
ONEWEB-0457             
1 51647U 22012AB  26121.28382078  .00002029  00000+0  57725-2 0  9990
2 51647  87.8852  45.6051 0001578  84.9642 275.1666 13.10400172203207
ONEWEB-0458             
1 51648U 22012AC  26121.22910436  .00000580  00000+0  16262-2 0  9991
2 51648  87.8863  45.5996 0001958  82.2689 277.8660 13.10375312203155
ONEWEB-0461             
1 51649U 22012AD  26121.14866897  .00000094  00000+0  20874-3 0  9999
2 51649  87.9191  15.2010 0001675  81.2851 278.8470 13.17648161207693
ONEWEB-0463             
1 51650U 22012AE  26121.13010859  .00000097  00000+0  21688-3 0  9996
2 51650  87.9179  15.2318 0001637  80.6161 279.5156 13.17649274207478
ONEWEB-0464             
1 51651U 22012AF  26121.22578218  .00000343  00000+0  94710-3 0  9995
2 51651  87.8845  45.6266 0002182  77.5556 282.5815 13.10375285203176
