[{"OBJECT_NAME":"ONEWEB-0439","OBJECT_ID":"2022-012P","EPOCH":"2026-05-01T05:20:20.251968","MEAN_MOTION":13.10376583,"ECCENTRICITY":0.0001961,"INCLINATION":87.8855,"RA_OF_ASC_NODE":45.6144,"ARG_OF_PERICENTER":79.6633,"MEAN_ANOMALY":280.4715,"EPHEMERIS_TYPE":0,"CLASSIFICATION_TYPE":"U","NORAD_CAT_ID":51635,"ELEMENT_SET_NO":999,"REV_AT_EPOCH":20317,"BSTAR":0.00054244,"MEAN_MOTION_DOT":2.02e-06,"MEAN_MOTION_DDOT":0.0},{"OBJECT_NAME":"ONEWEB-0442","OBJECT_ID":"2022-012Q","EPOCH":"2026-05-01T02:58:50.875680","MEAN_MOTION":13.17648437,"ECCENTRICITY":0.0001728,"INCLINATION":87.9183,"RA_OF_ASC_NODE":15.2307,"ARG_OF_PERICENTER":99.7251,"MEAN_ANOMALY":260.4076,"EPHEMERIS_TYPE":0,"CLASSIFICATION_TYPE":"U","NORAD_CAT_ID":51636,"ELEMENT_SET_NO":999,"REV_AT_EPOCH":20747,"BSTAR":0.00011742,"MEAN_MOTION_DOT":5.8e-07,"MEAN_MOTION_DDOT":0.0},{"OBJECT_NAME":"ONEWEB-0443","OBJECT_ID":"2022-012R","EPOCH":"2026-05-01T03:26:47.522112","MEAN_MOTION":13.17648932,"ECCENTRICITY":0.0002128,"INCLINATION":87.9178,"RA_OF_ASC_NODE":15.2287,"ARG_OF_PERICENTER":84.4593,"MEAN_ANOMALY":275.6781,"EPHEMERIS_TYPE":0,"CLASSIFICATION_TYPE":"U","NORAD_CAT_ID":51637,"ELEMENT_SET_NO":999,"REV_AT_EPOCH":20752,"BSTAR":0.00030531000000000004,"MEAN_MOTION_DOT":1.31e-06,"MEAN_MOTION_DDOT":0.0},{"OBJECT_NAME":"ONEWEB-0444","OBJECT_ID":"2022-012S","EPOCH":"2026-05-01T06:55:57.160128","MEAN_MOTION":13.10376458,"ECCENTRICITY":0.0002013,"INCLINATION":87.8855,"RA_OF_ASC_NODE":45.6,"ARG_OF_PERICENTER":81.044,"MEAN_ANOMALY":279.0915,"EPHEMERIS_TYPE":0,"CLASSIFICATION_TYPE":"U","NORAD_CAT_ID":51638,"ELEMENT_SET_NO":999,"REV_AT_EPOCH":20319,"BSTAR":-0.0008661900000000001,"MEAN_MOTION_DOT":-2.9e-06,"MEAN_MOTION_DDOT":0.0},{"OBJECT_NAME":"ONEWEB-0445","OBJECT_ID":"2022-012T","EPOCH":"2026-05-01T05:37:04.770336","MEAN_MOTION":13.10376396,"ECCENTRICITY":0.0001654,"INCLINATION":87.8862,"RA_OF_ASC_NODE":45.5945,"ARG_OF_PERICENTER":74.653,"MEAN_ANOMALY":285.4781,"EPHEMERIS_TYPE":0,"CLASSIFICATION_TYPE":"U","NORAD_CAT_ID":51639,"ELEMENT_SET_NO":999,"REV_AT_EPOCH":20319,"BSTAR":0.0019696,"MEAN_MOTION_DOT":7e-06,"MEAN_MOTION_DDOT":0.0},{"OBJECT_NAME":"ONEWEB-0446","OBJECT_ID":"2022-012U","EPOCH":"2026-05-01T06:53:32.602560","MEAN_MOTION":13.10376071,"ECCENTRICITY":0.0001715,"INCLINATION":87.8855,"RA_OF_ASC_NODE":45.6165,"ARG_OF_PERICENTER":77.3007,"MEAN_ANOMALY":282.8312,"EPHEMERIS_TYPE":0,"CLASSIFICATION_TYPE":"U","NORAD_CAT_ID":51640,"ELEMENT_SET_NO":999,"REV_AT_EPOCH":20318,"BSTAR":-0.0012776999999999999,"MEAN_MOTION_DOT":-4.33e-06,"MEAN_MOTION_DDOT":0.0},{"OBJECT_NAME":"ONEWEB-0448","OBJECT_ID":"2022-012V","EPOCH":"2026-05-01T07:00:41.752224","MEAN_MOTION":13.10374644,"ECCENTRICITY":0.0001959,"INCLINATION":87.8854,"RA_OF_ASC_NODE":45.6129,"ARG_OF_PERICENTER":78.6668,"MEAN_ANOMALY":281.4679,"EPHEMERIS_TYPE":0,"CLASSIFICATION_TYPE":"U","NORAD_CAT_ID":51641,"ELEMENT_SET_NO":999,"REV_AT_EPOCH":20315,"BSTAR":-0.0004938400000000001,"MEAN_MOTION_DOT":-1.6e-06,"MEAN_MOTION_DDOT":0.0},{"OBJECT_NAME":"ONEWEB-0449","OBJECT_ID":"2022-012W","EPOCH":"2026-05-01T05:17:56.585184","MEAN_MOTION":13.10376124,"ECCENTRICITY":0.0001955,"INCLINATION":87.886,"RA_OF_ASC_NODE":45.6108,"ARG_OF_PERICENTER":91.7598,"MEAN_ANOMALY":268.3753,"EPHEMERIS_TYPE":0,"CLASSIFICATION_TYPE":"U","NORAD_CAT_ID":51642,"ELEMENT_SET_NO":999,"REV_AT_EPOCH":20315,"BSTAR":0.00043625000000000006,"MEAN_MOTION_DOT":1.65e-06,"MEAN_MOTION_DDOT":0.0},{"OBJECT_NAME":"ONEWEB-0451","OBJECT_ID":"2022-012X","EPOCH":"2026-05-01T03:04:55.300512","MEAN_MOTION":13.17650194,"ECCENTRICITY":0.0001842,"INCLINATION":87.9191,"RA_OF_ASC_NODE":15.1904,"ARG_OF_PERICENTER":88.0997,"MEAN_ANOMALY":272.0346,"EPHEMERIS_TYPE":0,"CLASSIFICATION_TYPE":"U","NORAD_CAT_ID":51643,"ELEMENT_SET_NO":999,"REV_AT_EPOCH":20746,"BSTAR":0.00020832999999999998,"MEAN_MOTION_DOT":9.4e-07,"MEAN_MOTION_DDOT":0.0},{"OBJECT_NAME":"ONEWEB-0452","OBJECT_ID":"2022-012Y","EPOCH":"2026-05-01T03:02:28.366080","MEAN_MOTION":13.17648267,"ECCENTRICITY":0.0002048,"INCLINATION":87.918,"RA_OF_ASC_NODE":15.2321,"ARG_OF_PERICENTER":86.5433,"MEAN_ANOMALY":273.5933,"EPHEMERIS_TYPE":0,"CLASSIFICATION_TYPE":"U","NORAD_CAT_ID":51644,"ELEMENT_SET_NO":999,"REV_AT_EPOCH":20747,"BSTAR":-0.00024421,"MEAN_MOTION_DOT":-8.2e-07,"MEAN_MOTION_DDOT":0.0},{"OBJECT_NAME":"ONEWEB-0456","OBJECT_ID":"2022-012AA","EPOCH":"2026-05-01T05:32:17.941344","MEAN_MOTION":13.10375096,"ECCENTRICITY":0.0002015,"INCLINATION":87.8867,"RA_OF_ASC_NODE":45.5919,"ARG_OF_PERICENTER":75.3495,"MEAN_ANOMALY":284.7856,"EPHEMERIS_TYPE":0,"CLASSIFICATION_TYPE":"U","NORAD_CAT_ID":51646,"ELEMENT_SET_NO":999,"REV_AT_EPOCH":20319,"BSTAR":0.0017419000000000002,"MEAN_MOTION_DOT":6.21e-06,"MEAN_MOTION_DDOT":0.0},{"OBJECT_NAME":"ONEWEB-0457","OBJECT_ID":"2022-012AB","EPOCH":"2026-05-01T06:48:42.115392","MEAN_MOTION":13.10400172,"ECCENTRICITY":0.0001578,"INCLINATION":87.8852,"RA_OF_ASC_NODE":45.6051,"ARG_OF_PERICENTER":84.9642,"MEAN_ANOMALY":275.1666,"EPHEMERIS_TYPE":0,"CLASSIFICATION_TYPE":"U","NORAD_CAT_ID":51647,"ELEMENT_SET_NO":999,"REV_AT_EPOCH":20320,"BSTAR":0.005772500000000001,"MEAN_MOTION_DOT":2.029e-05,"MEAN_MOTION_DDOT":0.0},{"OBJECT_NAME":"ONEWEB-0458","OBJECT_ID":"2022-012AC","EPOCH":"2026-05-01T05:29:54.616704","MEAN_MOTION":13.10375312,"ECCENTRICITY":0.0001958,"INCLINATION":87.8863,"RA_OF_ASC_NODE":45.5996,"ARG_OF_PERICENTER":82.2689,"MEAN_ANOMALY":277.866,"EPHEMERIS_TYPE":0,"CLASSIFICATION_TYPE":"U","NORAD_CAT_ID":51648,"ELEMENT_SET_NO":999,"REV_AT_EPOCH":20315,"BSTAR":0.0016262,"MEAN_MOTION_DOT":5.8e-06,"MEAN_MOTION_DDOT":0.0},{"OBJECT_NAME":"ONEWEB-0461","OBJECT_ID":"2022-012AD","EPOCH":"2026-05-01T03:34:04.999008","MEAN_MOTION":13.17648161,"ECCENTRICITY":0.0001675,"INCLINATION":87.9191,"RA_OF_ASC_NODE":15.201,"ARG_OF_PERICENTER":81.2851,"MEAN_ANOMALY":278.847,"EPHEMERIS_TYPE":0,"CLASSIFICATION_TYPE":"U","NORAD_CAT_ID":51649,"ELEMENT_SET_NO":999,"REV_AT_EPOCH":20769,"BSTAR":0.00020874,"MEAN_MOTION_DOT":9.4e-07,"MEAN_MOTION_DDOT":0.0},{"OBJECT_NAME":"ONEWEB-0463","OBJECT_ID":"2022-012AE","EPOCH":"2026-05-01T03:07:21.382176","MEAN_MOTION":13.17649274,"ECCENTRICITY":0.0001637,"INCLINATION":87.9179,"RA_OF_ASC_NODE":15.2318,"ARG_OF_PERICENTER":80.6161,"MEAN_ANOMALY":279.5156,"EPHEMERIS_TYPE":0,"CLASSIFICATION_TYPE":"U","NORAD_CAT_ID":51650,"ELEMENT_SET_NO":999,"REV_AT_EPOCH":20747,"BSTAR":0.00021688,"MEAN_MOTION_DOT":9.7e-07,"MEAN_MOTION_DDOT":0.0},{"OBJECT_NAME":"ONEWEB-0464","OBJECT_ID":"2022-012AF","EPOCH":"2026-05-01T05:25:07.580352","MEAN_MOTION":13.10375285,"ECCENTRICITY":0.0002182,"INCLINATION":87.8845,"RA_OF_ASC_NODE":45.6266,"ARG_OF_PERICENTER":77.5556,"MEAN_ANOMALY":282.5815,"EPHEMERIS_TYPE":0,"CLASSIFICATION_TYPE":"U","NORAD_CAT_ID":51651,"ELEMENT_SET_NO":999,"REV_AT_EPOCH":20317,"BSTAR":0.0009471000000000001,"MEAN_MOTION_DOT":3.43e-06,"MEAN_MOTION_DDOT":0.0}]